NORAD_CAT_ID,OBJECT_NAME,OBJECT_TYPE,EPOCH,MEAN_MOTION,ECCENTRICITY,INCLINATION,RA_OF_ASC_NODE,ARG_OF_PERICENTER,MEAN_ANOMALY,BSTAR,MEAN_MOTION_DOT,MEAN_MOTION_DDOT,TLE_LINE0,TLE_LINE1,TLE_LINE2,SEMIMAJOR_AXIS,PERIOD,APOGEE,PERIGEE,DECAYED
55770.0,STARLINK-5557,PAYLOAD,2023-06-03 16:41:30,15.69921261,0.0003138,69.9989,256.7128,265.5824,94.5013,7.8593e-06,7.32e-06,0.0,0 STARLINK-5557,1 55770U 23028AF  23154.69548851  .00000732  00000-0  78593-5 0  9999,2 55770  69.9989 256.7128 0003138 265.5824  94.5013 15.69921261 15105,6737.259,91.724,361.238,357.01,0.0
55770.0,STARLINK-5557,PAYLOAD,2023-06-04 00:20:21,15.69841007,0.000381,69.9986,255.8184,277.0312,83.045,-7.0815e-05,-8.69e-05,0.0,0 STARLINK-5557,1 55770U 23028AF  23155.01413511 -.00008690  00000-0 -70815-4 0  9991,2 55770  69.9986 255.8184 0003810 277.0312  83.0450 15.69841007 15142,6737.489,91.729,361.921,356.787,0.0
55770.0,STARLINK-5557,PAYLOAD,2023-06-04 09:31:18,15.69472247,0.0004754,69.9988,254.7427,296.8177,63.2532,-0.00049747,-0.00058536,0.0,0 STARLINK-5557,1 55770U 23028AF  23155.39674271 -.00058536  00000-0 -49747-3 0  9997,2 55770  69.9988 254.7427 0004754 296.8177  63.2532 15.69472247 15202,6738.544,91.751,363.613,357.206,0.0
55770.0,STARLINK-5557,PAYLOAD,2023-06-04 14:08:02,15.68326659,0.0002448,69.9978,254.2082,194.9981,165.1142,-0.0018052,-0.00198683,0.0,0 STARLINK-5557,1 55770U 23028AF  23155.58891807 -.00198683  00000-0 -18052-2 0  9996,2 55770  69.9978 254.2082 0002448 194.9981 165.1142 15.68326659 15249,6741.825,91.818,365.341,362.04,0.0
55770.0,STARLINK-5557,PAYLOAD,2023-06-04 22:00:00,15.67964155,0.0003594,70.0006,253.2835,273.6147,142.6173,-0.0093949,-0.00947481,0.0,0 STARLINK-5557,1 55770U 23028AF  23155.91667824 -.00947481  00000-0 -93949-2 0  9999,2 55770  70.0006 253.2835 0003594 273.6147 142.6173 15.67964155 15287,6742.864,91.839,367.153,362.306,0.0
55770.0,STARLINK-5557,PAYLOAD,2023-06-05 14:00:01,15.66608969,0.0003431,70.0006,251.417,275.6752,300.9964,-0.0089162,-0.00846522,0.0,0 STARLINK-5557,1 55770U 23028AF  23156.58335648 -.00846522  00000-0 -89162-2 0  9995,2 55770  70.0006 251.4170 0003431 275.6752 300.9964 15.66608969 15388,6746.752,91.918,370.932,366.303,0.0
55770.0,STARLINK-5557,PAYLOAD,2023-06-06 00:00:00,15.65797476,0.0003436,70.0003,250.2518,271.7206,133.5199,-0.0093197,-0.00855355,0.0,0 STARLINK-5557,1 55770U 23028AF  23157.00001157 -.00855355  00000-0 -93197-2 0  9995,2 55770  70.0003 250.2518 0003436 271.7206 133.5199 15.65797476  1302,6749.083,91.966,373.267,368.629,0.0
55770.0,STARLINK-5557,PAYLOAD,2023-06-06 06:00:00,15.65365633,0.0003465,70.0002,249.5538,268.3849,105.4264,-0.010421,-0.00945953,0.0,0 STARLINK-5557,1 55770U 23028AF  23157.25001157 -.00945953  00000-0 -10421-1 0  9994,2 55770  70.0002 249.5538 0003465 268.3849 105.4264 15.65365633 15493,6750.324,91.991,374.528,369.85,0.0
55770.0,STARLINK-5557,PAYLOAD,2023-06-06 14:00:01,15.64663877,0.0003313,70.0001,248.6235,276.5693,174.7023,-0.009805,-0.00872046,0.0,0 STARLINK-5557,1 55770U 23028AF  23157.58334491 -.00872046  00000-0 -98050-2 0  9997,2 55770  70.0001 248.6235 0003313 276.5693 174.7023 15.64663877  1303,6752.343,92.033,376.445,371.971,0.0
55770.0,STARLINK-5557,PAYLOAD,2023-06-06 20:00:01,15.64222816,0.0003352,69.9997,247.9263,276.589,142.2363,-0.011058,-0.00957787,0.0,0 STARLINK-5557,1 55770U 23028AF  23157.83334491 -.00957787  00000-0 -11058-1 0  9993,2 55770  69.9997 247.9263 0003352 276.5890 142.2363 15.64222816  1300,6753.612,92.058,377.741,373.213,0.0
55770.0,STARLINK-5557,PAYLOAD,2023-06-07 06:00:00,15.63413538,0.0003311,70.0001,246.7659,268.2262,335.5611,-0.01135,-0.00952587,0.0,0 STARLINK-5557,1 55770U 23028AF  23158.25001157 -.00952587  00000-0 -11350-1 0  9998,2 55770  70.0001 246.7659 0003311 268.2262 335.5611 15.63413538 15648,6755.942,92.106,380.044,375.57,0.0
55770.0,STARLINK-5557,PAYLOAD,2023-06-07 14:00:01,15.62711032,0.0003413,69.9997,245.8384,274.5331,44.3677,-0.010694,-0.00879805,0.0,0 STARLINK-5557,1 55770U 23028AF  23158.58334491 -.00879805  00000-0 -10694-1 0  9995,2 55770  69.9997 245.8384 0003413 274.5331  44.3677 15.62711032  1308,6757.967,92.148,382.138,377.525,0.0
55770.0,STARLINK-5557,PAYLOAD,2023-06-07 22:00:00,15.62070717,0.0003365,69.9992,244.9116,271.7498,121.4622,-0.011364,-0.00909005,0.0,0 STARLINK-5557,1 55770U 23028AF  23158.91667824 -.00909005  00000-0 -11364-1 0  9992,2 55770  69.9992 244.9116 0003365 271.7498 121.4622 15.62070717  1300,6759.813,92.185,383.953,379.404,0.0
55770.0,STARLINK-5557,PAYLOAD,2023-06-08 06:00:00,15.61451052,0.0003304,69.9995,243.9857,268.1739,198.553,-0.012139,-0.00944316,0.0,0 STARLINK-5557,1 55770U 23028AF  23159.25001157 -.00944316  00000-0 -12139-1 0  9996,2 55770  69.9995 243.9857 0003304 268.1739 198.5530 15.61451052 15802,6761.602,92.222,385.701,381.233,0.0
55770.0,STARLINK-5557,PAYLOAD,2023-06-08 14:00:01,15.60749993,0.0003209,69.9994,243.0608,273.6797,265.8132,-0.01143,-0.00871966,0.0,0 STARLINK-5557,1 55770U 23028AF  23159.58334491 -.00871966  00000-0 -11430-1 0  9995,2 55770  69.9994 243.0608 0003209 273.6797 265.8132 15.60749993  1304,6763.626,92.263,387.662,383.321,0.0
55770.0,STARLINK-5557,PAYLOAD,2023-06-08 22:00:00,15.60116363,0.0003266,69.9992,242.1368,270.0241,341.4309,-0.012337,-0.00914403,0.0,0 STARLINK-5557,1 55770U 23028AF  23159.91667824 -.00914403  00000-0 -12337-1 0  9992,2 55770  69.9992 242.1368 0003266 270.0241 341.4309 15.60116363  1309,6765.458,92.301,389.532,385.113,0.0
55770.0,STARLINK-5557,PAYLOAD,2023-06-09 06:00:00,15.59499394,0.0003504,69.9995,241.214,267.2787,55.3421,-0.013185,-0.00950836,0.0,0 STARLINK-5557,1 55770U 23028AF  23160.25001157 -.00950836  00000-0 -13185-1 0  9994,2 55770  69.9995 241.2140 0003504 267.2787  55.3421 15.59499394 15967,6767.242,92.337,391.478,386.736,0.0
55770.0,STARLINK-5557,PAYLOAD,2023-06-09 12:19:56,15.60630052,0.0003902,69.9957,240.4856,263.1813,96.8934,-0.003417,-0.00274788,0.0,0 STARLINK-5557,1 55770U 23028AF  23160.51385336 -.00274788  00000-0 -34170-2 0  9990,2 55770  69.9957 240.4856 0003902 263.1813  96.8934 15.60630052 16013,6763.973,92.27,388.477,383.199,0.0
55770.0,STARLINK-5557,PAYLOAD,2023-06-09 22:00:00,15.58151881,0.0003513,69.9989,239.3702,273.9131,188.7468,-0.01307,-0.00900329,0.0,0 STARLINK-5557,1 55770U 23028AF  23160.91667824 -.00900329  00000-0 -13070-1 0  9991,2 55770  69.9989 239.3702 0003513 273.9131 188.7468 15.58151881  1309,6771.143,92.417,395.387,390.629,0.0
55770.0,STARLINK-5557,PAYLOAD,2023-06-10 06:00:02,15.57534424,0.0003481,69.9995,238.4498,269.1042,262.4405,-0.013993,-0.0093794,0.0,0 STARLINK-5557,1 55770U 23028AF  23161.25002315 -.00937940  00000-0 -13993-1 0  9990,2 55770  69.9995 238.4498 0003481 269.1042 262.4405 15.57534424 16113,6772.932,92.454,397.155,392.44,0.0
55770.0,STARLINK-5557,PAYLOAD,2023-06-10 14:00:01,15.56831476,0.0003585,69.9995,237.5301,273.4723,326.0809,-0.013177,-0.00866855,0.0,0 STARLINK-5557,1 55770U 23028AF  23161.58334491 -.00866855  00000-0 -13177-1 0  9999,2 55770  69.9995 237.5301 0003585 273.4723 326.0809 15.56831476  1301,6774.971,92.496,399.265,394.407,0.0
55770.0,STARLINK-5557,PAYLOAD,2023-06-10 22:00:00,15.56196167,0.0003582,69.9992,236.6114,268.9711,37.8481,-0.014064,-0.00900315,0.0,0 STARLINK-5557,1 55770U 23028AF  23161.91667824 -.00900315  00000-0 -14064-1 0  9991,2 55770  69.9992 236.6114 0003582 268.9711  37.8481 15.56196167  1307,6776.815,92.533,401.107,396.252,0.0
55770.0,STARLINK-5557,PAYLOAD,2023-06-11 14:00:01,15.54877243,0.0003529,69.9994,234.7769,276.0708,162.9466,-0.014125,-0.00864426,0.0,0 STARLINK-5557,1 55770U 23028AF  23162.58334491 -.00864426  00000-0 -14125-1 0  9996,2 55770  69.9994 234.7769 0003529 276.0708 162.9466 15.54877243 16321,6780.646,92.612,404.904,400.119,0.0
55770.0,STARLINK-5557,PAYLOAD,2023-06-11 22:00:00,15.54233019,0.0003382,69.9994,233.8608,271.2732,232.6703,-0.014952,-0.00891032,0.0,0 STARLINK-5557,1 55770U 23028AF  23162.91667824 -.00891032  00000-0 -14952-1 0  9993,2 55770  69.9994 233.8608 0003382 271.2732 232.6703 15.54233019  1302,6782.52,92.65,406.679,402.091,0.0
55770.0,STARLINK-5557,PAYLOAD,2023-06-12 06:00:00,15.53630681,0.0003356,70.0,232.9461,267.5252,300.5417,-0.01657,-0.00972628,0.0,0 STARLINK-5557,1 55770U 23028AF  23163.25001157 -.00972628  00000-0 -16570-1 0  9991,2 55770  70.0000 232.9461 0003356 267.5252 300.5417 15.53630681 16427,6784.273,92.686,408.415,403.861,0.0
55770.0,STARLINK-5557,PAYLOAD,2023-06-12 14:00:01,15.52924713,0.0003393,69.9998,232.0318,273.7501,357.758,-0.015289,-0.0087058,0.0,0 STARLINK-5557,1 55770U 23028AF  23163.58335648 -.00870580  00000-0 -15289-1 0  9992,2 55770  69.9998 232.0318 0003393 273.7501 357.7580 15.52924713  1306,6786.329,92.728,410.497,405.891,0.0
55770.0,STARLINK-5557,PAYLOAD,2023-06-12 22:00:00,15.52270084,0.0003402,69.9996,231.1184,269.6178,64.4091,-0.01588,-0.00881971,0.0,0 STARLINK-5557,1 55770U 23028AF  23163.91667824 -.00881971  00000-0 -15880-1 0  9996,2 55770  69.9996 231.1184 0003402 269.6178  64.4091 15.52270084 16535,6788.237,92.767,412.411,407.792,0.0
55770.0,STARLINK-5557,PAYLOAD,2023-06-13 00:00:00,15.52078666,0.0003426,69.9997,230.8903,269.2363,170.3174,-0.014725,-0.0081784,0.0,0 STARLINK-5557,1 55770U 23028AF  23164.00001157 -.00817840  00000-0 -14725-1 0  9999,2 55770  69.9997 230.8903 0003426 269.2363 170.3174 15.52078666  1309,6788.795,92.779,412.986,408.334,0.0
55770.0,STARLINK-5557,PAYLOAD,2023-06-13 06:00:02,15.51504043,0.0003459,70.0,230.2061,267.4721,128.4209,-0.0072716,-0.00410036,0.0,0 STARLINK-5557,1 55770U 23028AF  23164.25002315 -.00410036  00000-0 -72716-2 0  9994,2 55770  70.0000 230.2061 0003459 267.4721 128.4209 15.51504043 16581,6790.471,92.813,414.685,409.987,0.0
55770.0,STARLINK-5557,PAYLOAD,2023-06-13 14:00:01,15.51202726,0.0003547,70.0001,229.2943,276.2091,180.6848,0.00074457,0.0004378,0.0,0 STARLINK-5557,1 55770U 23028AF  23164.58334491  .00043780  00000-0  74457-3 0  9994,2 55770  70.0001 229.2943 0003547 276.2091 180.6848 15.51202726 16633,6791.35,92.831,415.624,410.806,0.0
